ORBCOMM FM37 [-]        
1 33064U 08031E   23322.09021285  .00001234  00000+0  20969-3 0  9995
2 33064  48.4410 197.2720 0005590  67.5058  86.2425 14.75425485829031
ORBCOMM FM40 [-]        
1 33065U 08031F   23322.02450367  .00001257  00000+0  20790-3 0  9993
2 33065  48.4419 188.4955 0006878  76.1018  66.2471 14.76524879829166
VESSELSAT 1 [-]         
1 37840U 11058C   23322.40607302  .00000390  00000+0  68475-4 0  9996
2 37840  19.9636 343.1994 0013600 324.1239  35.8251 14.11084176624969
ORBCOMM FM109 [+]       
1 40086U 14040A   23322.10929770  .00000547  00000+0  16048-3 0  9991
2 40086  47.0037 217.1074 0001796 195.6660 164.4170 14.56093744497027
ORBCOMM FM107 [+]       
1 40087U 14040B   23322.07481709  .00000670  00000+0  18815-3 0  9994
2 40087  47.0056 218.2072 0001025 152.6343 207.4595 14.56102322497016
ORBCOMM FM106 [-]       
1 40088U 14040C   23321.65558546  .00001230  00000+0  25360-3 0  9998
2 40088  47.0608  86.0641 0019021 268.4377  91.4334 14.66240551498630
ORBCOMM FM111 [-]       
1 40089U 14040D   23322.38169825  .00001768  00000+0  25393-3 0  9990
2 40089  47.0064   3.7710 0034080 321.1379  38.7067 14.80393572504601
ORBCOMM FM104 [-]       
1 40090U 14040E   23321.93982941  .00000596  00000+0  17691-3 0  9994
2 40090  47.0059 245.8453 0016621  89.4212 270.8577 14.54635176496628
