<?xml version="1.0" encoding="UTF-8"?>
<ndm xmlns:xsi="http://www.w3.org/2001/XMLSchema-instance" xsi:noNamespaceSchemaLocation="https://sanaregistry.org/r/ndmxml_unqualified/ndmxml-2.0.0-master-2.0.xsd">
<omm id="CCSDS_OMM_VERS" version="2.0">
<header><CREATION_DATE/><ORIGINATOR/></header><body><segment><metadata><OBJECT_NAME>ORBCOMM FM37 [-]</OBJECT_NAME><OBJECT_ID>2008-031E</OBJECT_ID><CENTER_NAME>EARTH</CENTER_NAME><REF_FRAME>TEME</REF_FRAME><TIME_SYSTEM>UTC</TIME_SYSTEM><MEAN_ELEMENT_THEORY>SGP4</MEAN_ELEMENT_THEORY></metadata><data><meanElements><EPOCH>2023-11-18T02:09:54.390240</EPOCH><MEAN_MOTION>14.75425485</MEAN_MOTION><ECCENTRICITY>.000559</ECCENTRICITY><INCLINATION>48.4410</INCLINATION><RA_OF_ASC_NODE>197.2720</RA_OF_ASC_NODE><ARG_OF_PERICENTER>67.5058</ARG_OF_PERICENTER><MEAN_ANOMALY>86.2425</MEAN_ANOMALY></meanElements><tleParameters><EPHEMERIS_TYPE>0</EPHEMERIS_TYPE><CLASSIFICATION_TYPE>U</CLASSIFICATION_TYPE><NORAD_CAT_ID>33064</NORAD_CAT_ID><ELEMENT_SET_NO>999</ELEMENT_SET_NO><REV_AT_EPOCH>82903</REV_AT_EPOCH><BSTAR>.20969E-3</BSTAR><MEAN_MOTION_DOT>.1234E-4</MEAN_MOTION_DOT><MEAN_MOTION_DDOT>0</MEAN_MOTION_DDOT></tleParameters></data></segment></body></omm>
<omm id="CCSDS_OMM_VERS" version="2.0">
<header><CREATION_DATE/><ORIGINATOR/></header><body><segment><metadata><OBJECT_NAME>ORBCOMM FM40 [-]</OBJECT_NAME><OBJECT_ID>2008-031F</OBJECT_ID><CENTER_NAME>EARTH</CENTER_NAME><REF_FRAME>TEME</REF_FRAME><TIME_SYSTEM>UTC</TIME_SYSTEM><MEAN_ELEMENT_THEORY>SGP4</MEAN_ELEMENT_THEORY></metadata><data><meanElements><EPOCH>2023-11-18T00:35:17.117088</EPOCH><MEAN_MOTION>14.76524879</MEAN_MOTION><ECCENTRICITY>.0006878</ECCENTRICITY><INCLINATION>48.4419</INCLINATION><RA_OF_ASC_NODE>188.4955</RA_OF_ASC_NODE><ARG_OF_PERICENTER>76.1018</ARG_OF_PERICENTER><MEAN_ANOMALY>66.2471</MEAN_ANOMALY></meanElements><tleParameters><EPHEMERIS_TYPE>0</EPHEMERIS_TYPE><CLASSIFICATION_TYPE>U</CLASSIFICATION_TYPE><NORAD_CAT_ID>33065</NORAD_CAT_ID><ELEMENT_SET_NO>999</ELEMENT_SET_NO><REV_AT_EPOCH>82916</REV_AT_EPOCH><BSTAR>.2079E-3</BSTAR><MEAN_MOTION_DOT>.1257E-4</MEAN_MOTION_DOT><MEAN_MOTION_DDOT>0</MEAN_MOTION_DDOT></tleParameters></data></segment></body></omm>
<omm id="CCSDS_OMM_VERS" version="2.0">
<header><CREATION_DATE/><ORIGINATOR/></header><body><segment><metadata><OBJECT_NAME>VESSELSAT 1 [-]</OBJECT_NAME><OBJECT_ID>2011-058C</OBJECT_ID><CENTER_NAME>EARTH</CENTER_NAME><REF_FRAME>TEME</REF_FRAME><TIME_SYSTEM>UTC</TIME_SYSTEM><MEAN_ELEMENT_THEORY>SGP4</MEAN_ELEMENT_THEORY></metadata><data><meanElements><EPOCH>2023-11-18T09:44:44.708928</EPOCH><MEAN_MOTION>14.11084176</MEAN_MOTION><ECCENTRICITY>.00136</ECCENTRICITY><INCLINATION>19.9636</INCLINATION><RA_OF_ASC_NODE>343.1994</RA_OF_ASC_NODE><ARG_OF_PERICENTER>324.1239</ARG_OF_PERICENTER><MEAN_ANOMALY>35.8251</MEAN_ANOMALY></meanElements><tleParameters><EPHEMERIS_TYPE>0</EPHEMERIS_TYPE><CLASSIFICATION_TYPE>U</CLASSIFICATION_TYPE><NORAD_CAT_ID>37840</NORAD_CAT_ID><ELEMENT_SET_NO>999</ELEMENT_SET_NO><REV_AT_EPOCH>62496</REV_AT_EPOCH><BSTAR>.68475E-4</BSTAR><MEAN_MOTION_DOT>.39E-5</MEAN_MOTION_DOT><MEAN_MOTION_DDOT>0</MEAN_MOTION_DDOT></tleParameters></data></segment></body></omm>
<omm id="CCSDS_OMM_VERS" version="2.0">
<header><CREATION_DATE/><ORIGINATOR/></header><body><segment><metadata><OBJECT_NAME>ORBCOMM FM109 [+]</OBJECT_NAME><OBJECT_ID>2014-040A</OBJECT_ID><CENTER_NAME>EARTH</CENTER_NAME><REF_FRAME>TEME</REF_FRAME><TIME_SYSTEM>UTC</TIME_SYSTEM><MEAN_ELEMENT_THEORY>SGP4</MEAN_ELEMENT_THEORY></metadata><data><meanElements><EPOCH>2023-11-18T02:37:23.321280</EPOCH><MEAN_MOTION>14.56093744</MEAN_MOTION><ECCENTRICITY>.0001796</ECCENTRICITY><INCLINATION>47.0037</INCLINATION><RA_OF_ASC_NODE>217.1074</RA_OF_ASC_NODE><ARG_OF_PERICENTER>195.6660</ARG_OF_PERICENTER><MEAN_ANOMALY>164.4170</MEAN_ANOMALY></meanElements><tleParameters><EPHEMERIS_TYPE>0</EPHEMERIS_TYPE><CLASSIFICATION_TYPE>U</CLASSIFICATION_TYPE><NORAD_CAT_ID>40086</NORAD_CAT_ID><ELEMENT_SET_NO>999</ELEMENT_SET_NO><REV_AT_EPOCH>49702</REV_AT_EPOCH><BSTAR>.16048E-3</BSTAR><MEAN_MOTION_DOT>.547E-5</MEAN_MOTION_DOT><MEAN_MOTION_DDOT>0</MEAN_MOTION_DDOT></tleParameters></data></segment></body></omm>
<omm id="CCSDS_OMM_VERS" version="2.0">
<header><CREATION_DATE/><ORIGINATOR/></header><body><segment><metadata><OBJECT_NAME>ORBCOMM FM107 [+]</OBJECT_NAME><OBJECT_ID>2014-040B</OBJECT_ID><CENTER_NAME>EARTH</CENTER_NAME><REF_FRAME>TEME</REF_FRAME><TIME_SYSTEM>UTC</TIME_SYSTEM><MEAN_ELEMENT_THEORY>SGP4</MEAN_ELEMENT_THEORY></metadata><data><meanElements><EPOCH>2023-11-18T01:47:44.196576</EPOCH><MEAN_MOTION>14.56102322</MEAN_MOTION><ECCENTRICITY>.0001025</ECCENTRICITY><INCLINATION>47.0056</INCLINATION><RA_OF_ASC_NODE>218.2072</RA_OF_ASC_NODE><ARG_OF_PERICENTER>152.6343</ARG_OF_PERICENTER><MEAN_ANOMALY>207.4595</MEAN_ANOMALY></meanElements><tleParameters><EPHEMERIS_TYPE>0</EPHEMERIS_TYPE><CLASSIFICATION_TYPE>U</CLASSIFICATION_TYPE><NORAD_CAT_ID>40087</NORAD_CAT_ID><ELEMENT_SET_NO>999</ELEMENT_SET_NO><REV_AT_EPOCH>49701</REV_AT_EPOCH><BSTAR>.18815E-3</BSTAR><MEAN_MOTION_DOT>.67E-5</MEAN_MOTION_DOT><MEAN_MOTION_DDOT>0</MEAN_MOTION_DDOT></tleParameters></data></segment></body></omm>
<omm id="CCSDS_OMM_VERS" version="2.0">
<header><CREATION_DATE/><ORIGINATOR/></header><body><segment><metadata><OBJECT_NAME>ORBCOMM FM106 [-]</OBJECT_NAME><OBJECT_ID>2014-040C</OBJECT_ID><CENTER_NAME>EARTH</CENTER_NAME><REF_FRAME>TEME</REF_FRAME><TIME_SYSTEM>UTC</TIME_SYSTEM><MEAN_ELEMENT_THEORY>SGP4</MEAN_ELEMENT_THEORY></metadata><data><meanElements><EPOCH>2023-11-17T15:44:02.583744</EPOCH><MEAN_MOTION>14.66240551</MEAN_MOTION><ECCENTRICITY>.0019021</ECCENTRICITY><INCLINATION>47.0608</INCLINATION><RA_OF_ASC_NODE>86.0641</RA_OF_ASC_NODE><ARG_OF_PERICENTER>268.4377</ARG_OF_PERICENTER><MEAN_ANOMALY>91.4334</MEAN_ANOMALY></meanElements><tleParameters><EPHEMERIS_TYPE>0</EPHEMERIS_TYPE><CLASSIFICATION_TYPE>U</CLASSIFICATION_TYPE><NORAD_CAT_ID>40088</NORAD_CAT_ID><ELEMENT_SET_NO>999</ELEMENT_SET_NO><REV_AT_EPOCH>49863</REV_AT_EPOCH><BSTAR>.2536E-3</BSTAR><MEAN_MOTION_DOT>.123E-4</MEAN_MOTION_DOT><MEAN_MOTION_DDOT>0</MEAN_MOTION_DDOT></tleParameters></data></segment></body></omm>
<omm id="CCSDS_OMM_VERS" version="2.0">
<header><CREATION_DATE/><ORIGINATOR/></header><body><segment><metadata><OBJECT_NAME>ORBCOMM FM111 [-]</OBJECT_NAME><OBJECT_ID>2014-040D</OBJECT_ID><CENTER_NAME>EARTH</CENTER_NAME><REF_FRAME>TEME</REF_FRAME><TIME_SYSTEM>UTC</TIME_SYSTEM><MEAN_ELEMENT_THEORY>SGP4</MEAN_ELEMENT_THEORY></metadata><data><meanElements><EPOCH>2023-11-18T09:09:38.728800</EPOCH><MEAN_MOTION>14.80393572</MEAN_MOTION><ECCENTRICITY>.003408</ECCENTRICITY><INCLINATION>47.0064</INCLINATION><RA_OF_ASC_NODE>3.7710</RA_OF_ASC_NODE><ARG_OF_PERICENTER>321.1379</ARG_OF_PERICENTER><MEAN_ANOMALY>38.7067</MEAN_ANOMALY></meanElements><tleParameters><EPHEMERIS_TYPE>0</EPHEMERIS_TYPE><CLASSIFICATION_TYPE>U</CLASSIFICATION_TYPE><NORAD_CAT_ID>40089</NORAD_CAT_ID><ELEMENT_SET_NO>999</ELEMENT_SET_NO><REV_AT_EPOCH>50460</REV_AT_EPOCH><BSTAR>.25393E-3</BSTAR><MEAN_MOTION_DOT>.1768E-4</MEAN_MOTION_DOT><MEAN_MOTION_DDOT>0</MEAN_MOTION_DDOT></tleParameters></data></segment></body></omm>
<omm id="CCSDS_OMM_VERS" version="2.0">
<header><CREATION_DATE/><ORIGINATOR/></header><body><segment><metadata><OBJECT_NAME>ORBCOMM FM104 [-]</OBJECT_NAME><OBJECT_ID>2014-040E</OBJECT_ID><CENTER_NAME>EARTH</CENTER_NAME><REF_FRAME>TEME</REF_FRAME><TIME_SYSTEM>UTC</TIME_SYSTEM><MEAN_ELEMENT_THEORY>SGP4</MEAN_ELEMENT_THEORY></metadata><data><meanElements><EPOCH>2023-11-17T22:33:21.261024</EPOCH><MEAN_MOTION>14.54635176</MEAN_MOTION><ECCENTRICITY>.0016621</ECCENTRICITY><INCLINATION>47.0059</INCLINATION><RA_OF_ASC_NODE>245.8453</RA_OF_ASC_NODE><ARG_OF_PERICENTER>89.4212</ARG_OF_PERICENTER><MEAN_ANOMALY>270.8577</MEAN_ANOMALY></meanElements><tleParameters><EPHEMERIS_TYPE>0</EPHEMERIS_TYPE><CLASSIFICATION_TYPE>U</CLASSIFICATION_TYPE><NORAD_CAT_ID>40090</NORAD_CAT_ID><ELEMENT_SET_NO>999</ELEMENT_SET_NO><REV_AT_EPOCH>49662</REV_AT_EPOCH><BSTAR>.17691E-3</BSTAR><MEAN_MOTION_DOT>.596E-5</MEAN_MOTION_DOT><MEAN_MOTION_DDOT>0</MEAN_MOTION_DDOT></tleParameters></data></segment></body></omm>

</ndm>
